IRIDIUM 26              
1 24903U 97043A   25246.23610285  .00000776  00000+0  25432-3 0  9995
2 24903  86.3895  77.8117 0002090  94.0640 266.0797 14.37197453467956
IRIDIUM 22              
1 24907U 97043E   25246.02151991  .00000639  00000+0  21339-3 0  9990
2 24907  86.3901  81.5118 0002190  90.0486 270.0962 14.36004052467945
DUMMY MASS 1            
1 24925U 97048A   25246.00661035  .00000710  00000+0  76149-4 0  9998
2 24925  86.3303  99.3414 0004990 213.6876 146.4032 14.87042653516699
DUMMY MASS 2            
1 24926U 97048B   25246.04902881  .00000702  00000+0  75737-4 0  9993
2 24926  86.3305 100.9449 0005402 231.0970 128.9773 14.86794424516479
IRIDIUM 29              
1 24944U 97051A   25246.01657775  .00000684  00000+0  22629-3 0  9993
2 24944  86.3931 111.2563 0002220  81.9396 278.2053 14.36523857464449
IRIDIUM 33              
1 24946U 97051C   25246.01434925  .00000409  00000+0  13686-3 0  9993
2 24946  86.3845 110.5238 0007859 169.2294 190.9072 14.34933041463905
IRIDIUM 28              
1 24948U 97051E   25246.14973624  .00000613  00000+0  19842-3 0  9990
2 24948  86.3931 108.6700 0002063 101.0844 259.0586 14.37433262465049
IRIDIUM 36              
1 24967U 97056C   25245.82242682  .00000617  00000+0  19912-3 0  9995
2 24967  86.4005 140.4163 0002310  90.0350 270.1112 14.37661128463371
